{
    "links": {
        "self": "http://www.neowsapp.com/rest/v1/neo/3826632?api_key=iIulBulltgU6a56xZRHN4H3l9WmuAYTsLGpBGhQ2"
    },
    "id": "3826632",
    "neo_reference_id": "3826632",
    "name": "(2018 PG8)",
    "designation": "2018 PG8",
    "nasa_jpl_url": "http://ssd.jpl.nasa.gov/sbdb.cgi?sstr=3826632",
    "absolute_magnitude_h": 23.9,
    "estimated_diameter": {
        "kilometers": {
            "estimated_diameter_min": 0.04411182,
            "estimated_diameter_max": 0.0986370281
        },
        "meters": {
            "estimated_diameter_min": 44.1118199997,
            "estimated_diameter_max": 98.6370281305
        },
        "miles": {
            "estimated_diameter_min": 0.0274098057,
            "estimated_diameter_max": 0.0612901888
        },
        "feet": {
            "estimated_diameter_min": 144.7238235278,
            "estimated_diameter_max": 323.6123073718
        }
    },
    "is_potentially_hazardous_asteroid": false,
    "close_approach_data": [
        {
            "close_approach_date": "2018-07-20",
            "close_approach_date_full": "2018-Jul-20 05:48",
            "epoch_date_close_approach": 1532065680000,
            "relative_velocity": {
                "kilometers_per_second": "6.5091079981",
                "kilometers_per_hour": "23432.7887932791",
                "miles_per_hour": "14560.2236810239"
            },
            "miss_distance": {
                "astronomical": "0.1401808874",
                "lunar": "54.5303651986",
                "kilometers": "20970762.169749838",
                "miles": "13030627.3740622444"
            },
            "orbiting_body": "Earth"
        }
    ],
    "orbital_data": {
        "orbit_id": "6",
        "orbit_determination_date": "2018-09-09 07:01:59",
        "first_observation_date": "2018-08-05",
        "last_observation_date": "2018-09-08",
        "data_arc_in_days": 34,
        "observations_used": 30,
        "orbit_uncertainty": "7",
        "minimum_orbit_intersection": ".137807",
        "jupiter_tisserand_invariant": "3.545",
        "epoch_osculation": "2459000.5",
        "eccentricity": ".4722201084876223",
        "semi_major_axis": "2.148209385305554",
        "inclination": "7.630521961257206",
        "ascending_node_longitude": "321.054866795866",
        "orbital_period": "1150.041046895778",
        "perihelion_distance": "1.133781716322437",
        "perihelion_argument": "324.58253485121",
        "aphelion_distance": "3.162637054288671",
        "perihelion_time": "2459459.816189711737",
        "mean_anomaly": "216.2191943126267",
        "mean_motion": ".3130323052135591",
        "equinox": "J2000",
        "orbit_class": {
            "orbit_class_type": "AMO",
            "orbit_class_description": "Near-Earth asteroid orbits similar to that of 1221 Amor",
            "orbit_class_range": "1.017 AU < q (perihelion) < 1.3 AU"
        }
    },
    "is_sentry_object": false
}